SPACEMOBILE-004         
1 61049U 24163E   26196.62160951  .00012160  00000+0  55841-3 0  9995
2 61049  52.9675 178.1586 0006579 225.4338 134.6120 15.20780797102091
CZ-8A R/B               
1 66004U 25231K   26197.60900077 -.00000035  00000+0  46054-4 0  9994
2 66004  50.0040 274.1439 0116572 327.5851  31.7941 14.30162420 39156
SZ-21 MODULE            
1 66515U 25246C   26196.95471448  .00035292  00000+0  19466-3 0  9997
2 66515  41.4721 127.8201 0008592 225.8060 134.2080 15.78866927 38280
SPACEMOBILE-006         
1 67232U 25309A   26197.39546061  .00000913  00000+0  58828-4 0  9995
2 67232  52.9935 197.8358 0009990 219.1469 140.8802 15.18656625 31030
SPACEMOBILE-008         
1 69589U 26139A   26197.20988309  .00000129  00000+0  24228-4 0  9995
2 69589  52.9949 130.8006 0005108  58.8976 301.2516 15.12802700  4370
SPACEMOBILE-009         
1 69590U 26139B   26197.07977669  .00000164  00000+0  26252-4 0  9997
2 69590  52.9940 131.4074 0005333  54.4529 305.6959 15.12696048  4354
SPACEMOBILE-010         
1 69591U 26139C   26197.54552913  .00000432  00000+0  41587-4 0  9997
2 69591  52.9947 129.3313 0005294  47.6592 312.4847 15.12529797  4431
